HULIANWANG DIGUI-65     
1 65171U 25174H   26063.84366001  .00000051  00000+0  85313-4 0  9993
2 65171  86.4845 287.1551 0001224  87.5517 272.5757 13.24422219 26977
HULIANWANG DIGUI-66     
1 65172U 25174J   26063.76058249  .00000046  00000+0  72301-4 0  9994
2 65172  86.4880 287.2492 0001263  89.5818 270.5461 13.24421845 26964
HULIANWANG DIGUI-67     
1 65173U 25174K   26063.77572316  .00000061  00000+0  10800-3 0  9994
2 65173  86.4892 287.2776 0001259  88.0921 272.0357 13.24421454 26931
HULIANWANG DIGUI-68     
1 65228U 25178A   26063.79824847  .00000015  00000+0  85579-6 0  9997
2 65228  86.4939  48.7471 0002036  80.2285 279.9079 13.24423756 26492
HULIANWANG DIGUI-69     
1 65229U 25178B   26063.79100168  .00000029  00000+0  33645-4 0  9991
2 65229  86.4960  48.7844 0001963  81.5792 278.5565 13.24417685 26495
HULIANWANG DIGUI-70     
1 65230U 25178C   26063.78340356  .00000024  00000+0  21809-4 0  9991
2 65230  86.4899  48.6562 0002073  80.2236 279.9132 13.24418618 26498
HULIANWANG DIGUI-71     
1 65231U 25178D   26063.77582415  .00000026  00000+0  25744-4 0  9999
2 65231  86.4957  48.7726 0002008  81.4022 278.7340 13.24419529 26491
HULIANWANG DIGUI-72     
1 65232U 25178E   26063.76822715  .00000030  00000+0  35422-4 0  9998
2 65232  86.4941  48.7333 0002015  82.3230 277.8133 13.24419983 26492
HULIANWANG DIGUI-73     
1 65305U 25187A   26063.78814223 -.00000092  00000+0  70089-4 0  9993
2 65305  50.0037 220.2997 0001046 137.2574 222.8379 13.29342448 25816
HULIANWANG DIGUI-74     
1 65306U 25187B   26063.77141767 -.00000094  00000+0  63937-4 0  9995
2 65306  50.0079 220.2788 0001044 137.5625 222.5328 13.29342960 25819
HULIANWANG DIGUI-75     
1 65307U 25187C   26063.82995100 -.00000100  00000+0  50816-4 0  9990
2 65307  50.0071 219.9107 0001046 136.3090 223.7865 13.29341970 25827
HULIANWANG DIGUI-76     
1 65308U 25187D   26063.81343317 -.00000094  00000+0  64530-4 0  9997
2 65308  49.9995 220.3639 0001041 134.2478 225.8480 13.29339280 25814
HULIANWANG DIGUI-77     
1 65309U 25187E   26063.80493337 -.00000100  00000+0  52072-4 0  9991
2 65309  50.0030 220.3736 0001074 134.5693 225.5267 13.29341148 25810
HULIANWANG DIGUI-78     
1 65310U 25187F   26063.76316483 -.00000105  00000+0  41008-4 0  9996
2 65310  50.0095 220.2618 0001026 137.6246 222.4705 13.29341657 25814
HULIANWANG DIGUI-79     
1 65311U 25187G   26063.82148357 -.00000104  00000+0  42908-4 0  9996
2 65311  50.0025 220.4516 0001041 134.6290 225.4667 13.29343073 25814
HULIANWANG DIGUI-80     
1 65312U 25187H   26063.79655009 -.00000102  00000+0  48421-4 0  9994
2 65312  50.0015 220.3086 0001065 133.8690 226.2270 13.29341159 25818
