[{"OBJECT_NAME":"HULIANWANG DIGUI-65","OBJECT_ID":"2025-174H","EPOCH":"2026-03-04T20:14:52.224864","MEAN_MOTION":13.24422219,"ECCENTRICITY":0.0001224,"INCLINATION":86.4845,"RA_OF_ASC_NODE":287.1551,"ARG_OF_PERICENTER":87.5517,"MEAN_ANOMALY":272.5757,"EPHEMERIS_TYPE":0,"CLASSIFICATION_TYPE":"U","NORAD_CAT_ID":65171,"ELEMENT_SET_NO":999,"REV_AT_EPOCH":2697,"BSTAR":8.5313e-5,"MEAN_MOTION_DOT":5.1e-7,"MEAN_MOTION_DDOT":0},{"OBJECT_NAME":"HULIANWANG DIGUI-66","OBJECT_ID":"2025-174J","EPOCH":"2026-03-04T18:15:14.327136","MEAN_MOTION":13.24421845,"ECCENTRICITY":0.0001263,"INCLINATION":86.488,"RA_OF_ASC_NODE":287.2492,"ARG_OF_PERICENTER":89.5818,"MEAN_ANOMALY":270.5461,"EPHEMERIS_TYPE":0,"CLASSIFICATION_TYPE":"U","NORAD_CAT_ID":65172,"ELEMENT_SET_NO":999,"REV_AT_EPOCH":2696,"BSTAR":7.2301e-5,"MEAN_MOTION_DOT":4.6e-7,"MEAN_MOTION_DDOT":0},{"OBJECT_NAME":"HULIANWANG DIGUI-67","OBJECT_ID":"2025-174K","EPOCH":"2026-03-04T18:37:02.481024","MEAN_MOTION":13.24421454,"ECCENTRICITY":0.0001259,"INCLINATION":86.4892,"RA_OF_ASC_NODE":287.2776,"ARG_OF_PERICENTER":88.0921,"MEAN_ANOMALY":272.0357,"EPHEMERIS_TYPE":0,"CLASSIFICATION_TYPE":"U","NORAD_CAT_ID":65173,"ELEMENT_SET_NO":999,"REV_AT_EPOCH":2693,"BSTAR":0.000108,"MEAN_MOTION_DOT":6.1e-7,"MEAN_MOTION_DDOT":0},{"OBJECT_NAME":"HULIANWANG DIGUI-68","OBJECT_ID":"2025-178A","EPOCH":"2026-03-04T19:09:28.667808","MEAN_MOTION":13.24423756,"ECCENTRICITY":0.0002036,"INCLINATION":86.4939,"RA_OF_ASC_NODE":48.7471,"ARG_OF_PERICENTER":80.2285,"MEAN_ANOMALY":279.9079,"EPHEMERIS_TYPE":0,"CLASSIFICATION_TYPE":"U","NORAD_CAT_ID":65228,"ELEMENT_SET_NO":999,"REV_AT_EPOCH":2649,"BSTAR":8.5579e-7,"MEAN_MOTION_DOT":1.5e-7,"MEAN_MOTION_DDOT":0},{"OBJECT_NAME":"HULIANWANG DIGUI-69","OBJECT_ID":"2025-178B","EPOCH":"2026-03-04T18:59:02.545152","MEAN_MOTION":13.24417685,"ECCENTRICITY":0.0001963,"INCLINATION":86.496,"RA_OF_ASC_NODE":48.7844,"ARG_OF_PERICENTER":81.5792,"MEAN_ANOMALY":278.5565,"EPHEMERIS_TYPE":0,"CLASSIFICATION_TYPE":"U","NORAD_CAT_ID":65229,"ELEMENT_SET_NO":999,"REV_AT_EPOCH":2649,"BSTAR":3.3645e-5,"MEAN_MOTION_DOT":2.9e-7,"MEAN_MOTION_DDOT":0},{"OBJECT_NAME":"HULIANWANG DIGUI-70","OBJECT_ID":"2025-178C","EPOCH":"2026-03-04T18:48:06.067584","MEAN_MOTION":13.24418618,"ECCENTRICITY":0.0002073,"INCLINATION":86.4899,"RA_OF_ASC_NODE":48.6562,"ARG_OF_PERICENTER":80.2236,"MEAN_ANOMALY":279.9132,"EPHEMERIS_TYPE":0,"CLASSIFICATION_TYPE":"U","NORAD_CAT_ID":65230,"ELEMENT_SET_NO":999,"REV_AT_EPOCH":2649,"BSTAR":2.1809e-5,"MEAN_MOTION_DOT":2.4e-7,"MEAN_MOTION_DDOT":0},{"OBJECT_NAME":"HULIANWANG DIGUI-71","OBJECT_ID":"2025-178D","EPOCH":"2026-03-04T18:37:11.206560","MEAN_MOTION":13.24419529,"ECCENTRICITY":0.0002008,"INCLINATION":86.4957,"RA_OF_ASC_NODE":48.7726,"ARG_OF_PERICENTER":81.4022,"MEAN_ANOMALY":278.734,"EPHEMERIS_TYPE":0,"CLASSIFICATION_TYPE":"U","NORAD_CAT_ID":65231,"ELEMENT_SET_NO":999,"REV_AT_EPOCH":2649,"BSTAR":2.5744e-5,"MEAN_MOTION_DOT":2.6e-7,"MEAN_MOTION_DDOT":0},{"OBJECT_NAME":"HULIANWANG DIGUI-72","OBJECT_ID":"2025-178E","EPOCH":"2026-03-04T18:26:14.825760","MEAN_MOTION":13.24419983,"ECCENTRICITY":0.0002015,"INCLINATION":86.4941,"RA_OF_ASC_NODE":48.7333,"ARG_OF_PERICENTER":82.323,"MEAN_ANOMALY":277.8133,"EPHEMERIS_TYPE":0,"CLASSIFICATION_TYPE":"U","NORAD_CAT_ID":65232,"ELEMENT_SET_NO":999,"REV_AT_EPOCH":2649,"BSTAR":3.5422e-5,"MEAN_MOTION_DOT":3.0e-7,"MEAN_MOTION_DDOT":0},{"OBJECT_NAME":"HULIANWANG DIGUI-73","OBJECT_ID":"2025-187A","EPOCH":"2026-03-04T18:54:55.488672","MEAN_MOTION":13.29342448,"ECCENTRICITY":0.0001046,"INCLINATION":50.0037,"RA_OF_ASC_NODE":220.2997,"ARG_OF_PERICENTER":137.2574,"MEAN_ANOMALY":222.8379,"EPHEMERIS_TYPE":0,"CLASSIFICATION_TYPE":"U","NORAD_CAT_ID":65305,"ELEMENT_SET_NO":999,"REV_AT_EPOCH":2581,"BSTAR":7.0089e-5,"MEAN_MOTION_DOT":-9.2e-7,"MEAN_MOTION_DDOT":0},{"OBJECT_NAME":"HULIANWANG DIGUI-74","OBJECT_ID":"2025-187B","EPOCH":"2026-03-04T18:30:50.486688","MEAN_MOTION":13.2934296,"ECCENTRICITY":0.0001044,"INCLINATION":50.0079,"RA_OF_ASC_NODE":220.2788,"ARG_OF_PERICENTER":137.5625,"MEAN_ANOMALY":222.5328,"EPHEMERIS_TYPE":0,"CLASSIFICATION_TYPE":"U","NORAD_CAT_ID":65306,"ELEMENT_SET_NO":999,"REV_AT_EPOCH":2581,"BSTAR":6.3937e-5,"MEAN_MOTION_DOT":-9.4e-7,"MEAN_MOTION_DDOT":0},{"OBJECT_NAME":"HULIANWANG DIGUI-75","OBJECT_ID":"2025-187C","EPOCH":"2026-03-04T19:55:07.766400","MEAN_MOTION":13.2934197,"ECCENTRICITY":0.0001046,"INCLINATION":50.0071,"RA_OF_ASC_NODE":219.9107,"ARG_OF_PERICENTER":136.309,"MEAN_ANOMALY":223.7865,"EPHEMERIS_TYPE":0,"CLASSIFICATION_TYPE":"U","NORAD_CAT_ID":65307,"ELEMENT_SET_NO":999,"REV_AT_EPOCH":2582,"BSTAR":5.0816e-5,"MEAN_MOTION_DOT":-1.0e-6,"MEAN_MOTION_DDOT":0},{"OBJECT_NAME":"HULIANWANG DIGUI-76","OBJECT_ID":"2025-187D","EPOCH":"2026-03-04T19:31:20.625888","MEAN_MOTION":13.2933928,"ECCENTRICITY":0.0001041,"INCLINATION":49.9995,"RA_OF_ASC_NODE":220.3639,"ARG_OF_PERICENTER":134.2478,"MEAN_ANOMALY":225.848,"EPHEMERIS_TYPE":0,"CLASSIFICATION_TYPE":"U","NORAD_CAT_ID":65308,"ELEMENT_SET_NO":999,"REV_AT_EPOCH":2581,"BSTAR":6.453e-5,"MEAN_MOTION_DOT":-9.4e-7,"MEAN_MOTION_DDOT":0},{"OBJECT_NAME":"HULIANWANG DIGUI-77","OBJECT_ID":"2025-187E","EPOCH":"2026-03-04T19:19:06.243168","MEAN_MOTION":13.29341148,"ECCENTRICITY":0.0001074,"INCLINATION":50.003,"RA_OF_ASC_NODE":220.3736,"ARG_OF_PERICENTER":134.5693,"MEAN_ANOMALY":225.5267,"EPHEMERIS_TYPE":0,"CLASSIFICATION_TYPE":"U","NORAD_CAT_ID":65309,"ELEMENT_SET_NO":999,"REV_AT_EPOCH":2581,"BSTAR":5.2072e-5,"MEAN_MOTION_DOT":-1.0e-6,"MEAN_MOTION_DDOT":0},{"OBJECT_NAME":"HULIANWANG DIGUI-78","OBJECT_ID":"2025-187F","EPOCH":"2026-03-04T18:18:57.441312","MEAN_MOTION":13.29341657,"ECCENTRICITY":0.0001026,"INCLINATION":50.0095,"RA_OF_ASC_NODE":220.2618,"ARG_OF_PERICENTER":137.6246,"MEAN_ANOMALY":222.4705,"EPHEMERIS_TYPE":0,"CLASSIFICATION_TYPE":"U","NORAD_CAT_ID":65310,"ELEMENT_SET_NO":999,"REV_AT_EPOCH":2581,"BSTAR":4.1008e-5,"MEAN_MOTION_DOT":-1.05e-6,"MEAN_MOTION_DDOT":0},{"OBJECT_NAME":"HULIANWANG DIGUI-79","OBJECT_ID":"2025-187G","EPOCH":"2026-03-04T19:42:56.180448","MEAN_MOTION":13.29343073,"ECCENTRICITY":0.0001041,"INCLINATION":50.0025,"RA_OF_ASC_NODE":220.4516,"ARG_OF_PERICENTER":134.629,"MEAN_ANOMALY":225.4667,"EPHEMERIS_TYPE":0,"CLASSIFICATION_TYPE":"U","NORAD_CAT_ID":65311,"ELEMENT_SET_NO":999,"REV_AT_EPOCH":2581,"BSTAR":4.2908e-5,"MEAN_MOTION_DOT":-1.04e-6,"MEAN_MOTION_DDOT":0},{"OBJECT_NAME":"HULIANWANG DIGUI-80","OBJECT_ID":"2025-187H","EPOCH":"2026-03-04T19:07:01.927776","MEAN_MOTION":13.29341159,"ECCENTRICITY":0.0001065,"INCLINATION":50.0015,"RA_OF_ASC_NODE":220.3086,"ARG_OF_PERICENTER":133.869,"MEAN_ANOMALY":226.227,"EPHEMERIS_TYPE":0,"CLASSIFICATION_TYPE":"U","NORAD_CAT_ID":65312,"ELEMENT_SET_NO":999,"REV_AT_EPOCH":2581,"BSTAR":4.8421e-5,"MEAN_MOTION_DOT":-1.02e-6,"MEAN_MOTION_DDOT":0}]
